*******************************************************************************
 Revised: July 31, 2013             Moon / (Earth)                          301
 
 GEOPHYSICAL DATA (updated 2018-Aug-15):
  Vol. mean radius, km  = 1737.53+-0.03    Mass, x10^22 kg       =    7.349
  Radius (gravity), km  = 1738.0           Surface emissivity    =    0.92
  Radius (IAU), km      = 1737.4           GM, km^3/s^2          = 4902.800066
  Density, g/cm^3       =    3.3437        GM 1-sigma, km^3/s^2  =  +-0.0001  
  V(1,0)                =   +0.21          Surface accel., m/s^2 =    1.62
  Earth/Moon mass ratio = 81.3005690769    Farside crust. thick. = ~80 - 90 km
  Mean crustal density  = 2.97+-.07 g/cm^3 Nearside crust. thick.= 58+-8 km 
  Heat flow, Apollo 15  = 3.1+-.6 mW/m^2   Mean angular diameter = 31'05.2"
  Heat flow, Apollo 17  = 2.2+-.5 mW/m^2   Sid. rot. rate, rad/s = 0.0000026617
  Geometric Albedo      = 0.12             Mean solar day        = 29.5306 d
  Obliquity to orbit    = 6.67 deg         Orbit period          = 27.321582 d
  Semi-major axis, a    = 384400 km        Eccentricity          = 0.05490
  Mean motion, rad/s    = 2.6616995x10^-6  Inclination           = 5.145 deg
  Apsidal period        = 3231.50 d        Nodal period          = 6798.38 d
                                 Perihelion  Aphelion    Mean
  Solar Constant (W/m^2)         1414+-7     1323+-7     1368+-7
  Maximum Planetary IR (W/m^2)   1314        1226        1268
  Minimum Planetary IR (W/m^2)      5.2         5.2         5.2
********************************************************************************
 
 
*******************************************************************************
Ephemeris / WWW_USER Tue Jun  8 13:39:01 2021 Pasadena, USA      / Horizons    
*******************************************************************************
Target body name: Moon (301)                      {source: DE441}
Center body name: Earth (399)                     {source: DE441}
Center-site name: Meudon
*******************************************************************************
Start time      : A.D. 2021-Jun-08 20:39:01.0450 UT      
Stop  time      : A.D. 2021-Jun-08 20:39:01.5454 UT      
Step-size       : 0 steps
*******************************************************************************
Target pole/equ : IAU_MOON                        {East-longitude positive}
Target radii    : 1737.4 x 1737.4 x 1737.4 km     {Equator, meridian, pole}    
Center geodetic : 2.23100000,48.8051081,0.1644712 {E-lon(deg),Lat(deg),Alt(km)}
Center cylindric: 2.23100000,4208.87625,4776.4356 {E-lon(deg),Dxy(km),Dz(km)}
Center pole/equ : High-precision EOP model        {East-longitude positive}
Center radii    : 6378.1 x 6378.1 x 6356.8 km     {Equator, meridian, pole}    
Target primary  : Earth
Vis. interferer : MOON (R_eq= 1737.400) km        {source: DE441}
Rel. light bend : Sun, EARTH                      {source: DE441}
Rel. lght bnd GM: 1.3271E+11, 3.9860E+05 km^3/s^2                              
Atmos refraction: NO (AIRLESS)
RA format       : DEG
Time format     : BOTH
RTS-only print  : NO       
EOP file        : eop.210607.p210829                                           
EOP coverage    : DATA-BASED 1962-JAN-20 TO 2021-JUN-07. PREDICTS-> 2021-AUG-28
Units conversion: 1 au= 149597870.700 km, c= 299792.458 km/s, 1 day= 86400.0 s 
Table cut-offs 1: Elevation (-90.0deg=NO ),Airmass (>38.000=NO), Daylight (NO )
Table cut-offs 2: Solar elongation (  0.0,180.0=NO ),Local Hour Angle( 0.0=NO )
Table cut-offs 3: RA/DEC angular rate (     0.0=NO )                           
Table format    : Comma Separated Values (spreadsheet)
**************************************************************************************************************************************************************************************************************************************************************************************
 Date__(UT)__HR:MN:SC.fff, Date_________JDUT, , , R.A._(ICRF), DEC_(ICRF), R.A._(a-app), DEC_(a-app),  Azi_(a-app), Elev_(a-app),  Ang-diam,  ObsSub-LON, ObsSub-LAT,  SunSub-LON, SunSub-LAT,    NP.ang,  NP.dist,             delta,     deldot,  RA_(ICRF-a-app), DEC_(ICRF-a-app),
**************************************************************************************************************************************************************************************************************************************************************************************
$$SOE
 2021-Jun-08 20:39:01.045, 2459374.360428762,N, ,    58.36434,   18.58476,     58.66273,    18.64568,   330.940327,   -17.697834,  1757.114,  359.415244,   1.911835,  197.203129,   0.211313,  349.5976,  878.068,  0.00272665994739,  0.1267696,         58.35875,         18.58370,
$$EOE
**************************************************************************************************************************************************************************************************************************************************************************************
Column meaning:
 
TIME

  Times PRIOR to 1962 are UT1, a mean-solar time closely related to the
prior but now-deprecated GMT. Times AFTER 1962 are in UTC, the current
civil or "wall-clock" time-scale. UTC is kept within 0.9 seconds of UT1
using integer leap-seconds for 1972 and later years.

  Conversion from the internal Barycentric Dynamical Time (TDB) of solar
system dynamics to the non-uniform civil UT time-scale requested for output
has not been determined for UTC times after the next July or January 1st.
Therefore, the last known leap-second is used as a constant over future
intervals.

  Time tags refer to the UT time-scale conversion from TDB on Earth
regardless of observer location within the solar system, although clock
rates may differ due to the local gravity field and no analog to "UT"
may be defined for that location.

  Any 'b' symbol in the 1st-column denotes a B.C. date. First-column blank
(" ") denotes an A.D. date. Calendar dates prior to 1582-Oct-15 are in the
Julian calendar system. Later calendar dates are in the Gregorian system.

  NOTE: "n.a." in output means quantity "not available" at the print-time.
 
SOLAR PRESENCE (OBSERVING SITE)
  Time tag is followed by a blank, then a solar-presence symbol:

        '*'  Daylight (refracted solar upper-limb on or above apparent horizon)
        'C'  Civil twilight/dawn
        'N'  Nautical twilight/dawn
        'A'  Astronomical twilight/dawn
        ' '  Night OR geocentric ephemeris

LUNAR PRESENCE WITH TARGET RISE/TRANSIT/SET MARKER (OBSERVING SITE)
  The solar-presence symbol is immediately followed by another marker symbol:

        'm'  Refracted upper-limb of Moon on or above apparent horizon
        ' '  Refracted upper-limb of Moon below apparent horizon OR geocentric
        'r'  Rise    (target body on or above cut-off RTS elevation)
        't'  Transit (target body at or past local maximum RTS elevation)
        's'  Set     (target body on or below cut-off RTS elevation)
 
RTS MARKERS (TVH)
  Rise and set are with respect to the reference ellipsoid true visual horizon
defined by the elevation cut-off angle. Horizon dip and yellow-light refraction
(Earth only) are considered. Accuracy is < or = to twice the requested search
step-size.
 
 'R.A._(ICRF), DEC_(ICRF),' =
  Astrometric right ascension and declination of the target center with
respect to the observing site (coordinate origin) in the reference frame of
the planetary ephemeris (ICRF). Compensated for down-leg light-time delay
aberration.

  Units: RA  in decimal degrees,  ddd.fffff{ffff}
         DEC in decimal degrees,  sdd.fffff{ffff}
 
 'R.A._(a-app), DEC_(a-app),' =
  Airless apparent right ascension and declination of the target center with
respect to an instantaneous reference frame defined by the Earth equator of-dat
(z-axis) and meridian containing the Earth equinox of-date (x-axis, EOP-correct
IAU76/80). Compensated for down-leg light-time delay, gravitational deflection
of light, stellar aberration, precession & nutation. Note: equinox (RA origin)
is offset -53 mas from the of-date frame defined by the IAU06/00a P & N system.

  Units: RA  in decimal degrees, ddd.fffff{ffff}
         DEC in decimal degrees  sdd.fffff{ffff}

 
 'Azi_(a-app), Elev_(a-app),' =
  Airless apparent azimuth and elevation of target center. Compensated
for light-time, the gravitational deflection of light, stellar aberration,
precession and nutation. Azimuth is measured clockwise from north:

  North(0) -> East(90) -> South(180) -> West(270) -> North (360)

Elevation angle is with respect to a plane perpendicular to the reference
surface local zenith direction. TOPOCENTRIC ONLY.  Units: DEGREES
 
 'Ang-diam,' =
   The equatorial angular width of the target body full disk, if it were fully
illuminated and visible to the observer. If the target body diameter is unknown
"n.a." is output.

   Units: ARCSECONDS
 
 'ObsSub-LON, ObsSub-LAT,' =
   Apparent planetodetic longitude and latitude (IAU2009 model) of the center
of the target disc seen by the OBSERVER at print-time. This is NOT exactly the
same as the "nearest" sub-point for a non-spherical target shape (since the
center of the disc might not be the point closest to the observer), but is
generally very close if not a very irregular body shape. Down-leg light
travel-time from target to observer is taken into account. Latitude is the
angle between the equatorial plane and the line perpendicular to the reference
ellipsoid of the body, so includes body oblateness. The reference ellipsoid is
an oblate spheroid with a single flatness coefficient in which the y-axis body
radius is taken to be the same value as the x-axis radius.  Positive longitude
is to the EAST for this target.  Units: DEGREES DEGREES
 
 'SunSub-LON, SunSub-LAT,' =
   Apparent sub-solar longitude and latitude of the Sun on the target. The
apparent planetodetic longitude and latitude (IAU2009) of the center of the
target disc as seen from the Sun, as seen by the observer at print-time. This
is NOT exactly the same as the "sub-solar" (nearest) point for a non-spherical
target shape (since the center of the disc seen from the Sun might not be the
closest point to the Sun), but is very close if not a highly irregular body
shape.  Light travel-time from Sun to target and from target to observer is
taken into account.  Latitude is the angle between the equatorial plane and
the line perpendicular to the reference ellipsoid of the body. The reference
ellipsoid is an oblate spheroid with a single flatness coefficient in which
the y-axis body radius is taken to be the same value as the x-axis radius.
Positive longitude is to the EAST for this target.  Units: DEGREES DEGREES
 
 'NP.ang,  NP.dist,' =
  Targets' apparent north-pole position angle (counter-clockwise with respect
to the direction of the true-of-date reference-frame north-pole) and its
angular distance from the sub-observer point (center of disk) at observation
time.  A negative distance indicates the planets' north-pole is on the hidden
hemisphere.  Units: DEGREES and ARCSECONDS
 
 'delta,     deldot,' =
   Apparent range ("delta", light-time aberrated) and range-rate ("delta-dot")
of the target center relative to the observer. A positive "deldot" means the
target center is moving away from the observer, negative indicates movement
toward the observer.  Units: AU and KM/S
 
 'RA_(ICRF-a-app), DEC_(ICRF-a-app),' =
   Airless apparent right ascension and declination coordinates of the target
in the ICRF reference frame, with down-leg light-time, gravitational deflection
of light, and stellar aberration.

   Units:
          RA : ddd.ddddd{dddd}   (degrees)
          DEC: sdd.ddddd{dddd}   (degrees)


 Computations by ...
     Solar System Dynamics Group, Horizons On-Line Ephemeris System
     4800 Oak Grove Drive, Jet Propulsion Laboratory
     Pasadena, CA  91109   USA
     Information  : https://ssd.jpl.nasa.gov/
     Documentation: https://ssd.jpl.nasa.gov/?horizons_doc
     Connect      : https://ssd.jpl.nasa.gov/?horizons (browser)
                    telnet ssd.jpl.nasa.gov 6775       (command-line)
                    e-mail command interface available
                    Script and CGI interfaces available
     Author       : Jon.D.Giorgini@jpl.nasa.gov

**************************************************************************************************************************************************************************************************************************************************************************************

!$$SOF
TABLE_TYPE = OBSERVER
QUANTITIES = '1,2,4,13,14,15,17,20,45'
COMMAND = "301"
SOLAR_ELONG = "0,180"
LHA_CUTOFF = 0
CSV_FORMAT = YES
CAL_FORMAT = BOTH
ANG_FORMAT = DEG
APPARENT = AIRLESS
REF_SYSTEM = J2000
EXTRA_PREC = NO
CENTER = '5@399'
TLIST = 2459374.360428766
SKIP_DAYLT = NO
